{"type": "FeatureCollection", "features": [ {"type": "Feature", "properties": {"norad_id": 66656, "name": "2025-274G", "group": "last-30-days", "lat": -72.92100261267818, "lon": 81.48869103023233, "alt_km": 592.0349115786839, "timestamp": "2025-12-26T19:22:37.604492+00:00", "meta": {"OBJECT_NAME": "2025-274G", "OBJECT_ID": "2025-274G", "EPOCH": "2025-12-26T06:58:30.148608", "MEAN_MOTION": 14.92353364, "ECCENTRICITY": 0.00129837, "INCLINATION": 97.7404, "RA_OF_ASC_NODE": 287.2574, "ARG_OF_PERICENTER": 206.7805, "MEAN_ANOMALY": 153.2746, "EPHEMERIS_TYPE": 0, "CLASSIFICATION_TYPE": "U", "NORAD_CAT_ID": 66656, "ELEMENT_SET_NO": 999, "REV_AT_EPOCH": 442, "BSTAR": 0.0003474413, "MEAN_MOTION_DOT": 3.503e-05, "MEAN_MOTION_DDOT": 0}, "tle": {"line1": "1 66656U 25274G   25360.29062672  .00003503  00000+0  34744-3 0  9994", "line2": "2 66656  97.7404 287.2574 0012983 206.7805 153.2746 14.92353364  4426"}}, "geometry": {"type": "Point", "coordinates": [81.48869103023233, -72.92100261267818]}}, {"type": "Feature", "properties": {"norad_id": 66657, "name": "SPIRONE", "group": "last-30-days", "lat": -81.26524221531011, "lon": -9.947580835973561, "alt_km": 592.628593186887, "timestamp": "2025-12-26T19:22:37.604502+00:00", "meta": {"OBJECT_NAME": "SPIRONE", "OBJECT_ID": "2025-274H", "EPOCH": "2025-12-26T05:16:50.940192", "MEAN_MOTION": 14.92531529, "ECCENTRICITY": 0.0010973, "INCLINATION": 97.74, "RA_OF_ASC_NODE": 287.1953, "ARG_OF_PERICENTER": 224.4692, "MEAN_ANOMALY": 135.5647, "EPHEMERIS_TYPE": 0, "CLASSIFICATION_TYPE": "U", "NORAD_CAT_ID": 66657, "ELEMENT_SET_NO": 999, "REV_AT_EPOCH": 441, "BSTAR": 0.00036189324, "MEAN_MOTION_DOT": 3.666e-05, "MEAN_MOTION_DDOT": 0}, "tle": {"line1": "1 66657U 25274H   25360.22003403  .00003666  00000+0  36189-3 0  9990", "line2": "2 66657  97.7400 287.1953 0010973 224.4692 135.5647 14.92531529  4414"}}, "geometry": {"type": "Point", "coordinates": [-9.947580835973561, -81.26524221531011]}}, {"type": "Feature", "properties": {"norad_id": 66658, "name": "2025-274J", "group": "last-30-days", "lat": -65.98096063643136, "lon": -54.448627629567135, "alt_km": 593.6208518787262, "timestamp": "2025-12-26T19:22:37.604514+00:00", "meta": {"OBJECT_NAME": "2025-274J", "OBJECT_ID": "2025-274J", "EPOCH": "2025-12-26T06:48:26.696448", "MEAN_MOTION": 14.92715443, "ECCENTRICITY": 0.00114502, "INCLINATION": 97.7399, "RA_OF_ASC_NODE": 287.266, "ARG_OF_PERICENTER": 227.2529, "MEAN_ANOMALY": 132.7727, "EPHEMERIS_TYPE": 0, "CLASSIFICATION_TYPE": "U", "NORAD_CAT_ID": 66658, "ELEMENT_SET_NO": 999, "REV_AT_EPOCH": 442, "BSTAR": 0.00052605999, "MEAN_MOTION_DOT": 5.381e-05, "MEAN_MOTION_DDOT": 0}, "tle": {"line1": "1 66658U 25274J   25360.28364232  .00005381  00000+0  52606-3 0  9995", "line2": "2 66658  97.7399 287.2660 0011450 227.2529 132.7727 14.92715443  4427"}}, "geometry": {"type": "Point", "coordinates": [-54.448627629567135, -65.98096063643136]}}, {"type": "Feature", "properties": {"norad_id": 66659, "name": "JACK K", "group": "last-30-days", "lat": -46.75365438940477, "lon": -63.895361272288454, "alt_km": 595.0407628791636, "timestamp": "2025-12-26T19:22:37.604524+00:00", "meta": {"OBJECT_NAME": "JACK K", "OBJECT_ID": "2025-274K", "EPOCH": "2025-12-26T14:45:46.770624", "MEAN_MOTION": 14.92885458, "ECCENTRICITY": 0.0012241, "INCLINATION": 97.7403, "RA_OF_ASC_NODE": 287.6011, "ARG_OF_PERICENTER": 228.1806, "MEAN_ANOMALY": 131.8369, "EPHEMERIS_TYPE": 0, "CLASSIFICATION_TYPE": "U", "NORAD_CAT_ID": 66659, "ELEMENT_SET_NO": 999, "REV_AT_EPOCH": 447, "BSTAR": 0.00033970875, "MEAN_MOTION_DOT": 3.469e-05, "MEAN_MOTION_DDOT": 0}, "tle": {"line1": "1 66659U 25274K   25360.61512466  .00003469  00000+0  33971-3 0  9996", "line2": "2 66659  97.7403 287.6011 0012241 228.1806 131.8369 14.92885458  4476"}}, "geometry": {"type": "Point", "coordinates": [-63.895361272288454, -46.75365438940477]}}, {"type": "Feature", "properties": {"norad_id": 66660, "name": "K-HERO", "group": "last-30-days", "lat": -30.744760721816167, "lon": -67.56101062837014, "alt_km": 596.1463096596553, "timestamp": "2025-12-26T19:22:37.604534+00:00", "meta": {"OBJECT_NAME": "K-HERO", "OBJECT_ID": "2025-274L", "EPOCH": "2025-12-26T06:38:54.259296", "MEAN_MOTION": 14.93033464, "ECCENTRICITY": 0.00128647, "INCLINATION": 97.7404, "RA_OF_ASC_NODE": 287.2767, "ARG_OF_PERICENTER": 230.2703, "MEAN_ANOMALY": 129.7383, "EPHEMERIS_TYPE": 0, "CLASSIFICATION_TYPE": "U", "NORAD_CAT_ID": 66660, "ELEMENT_SET_NO": 999, "REV_AT_EPOCH": 442, "BSTAR": 0.00031368898, "MEAN_MOTION_DOT": 3.212e-05, "MEAN_MOTION_DDOT": 0}, "tle": {"line1": "1 66660U 25274L   25360.27701689  .00003212  00000+0  31369-3 0  9992", "line2": "2 66660  97.7404 287.2767 0012864 230.2703 129.7383 14.93033464  4424"}}, "geometry": {"type": "Point", "coordinates": [-67.56101062837014, -30.744760721816167]}}, {"type": "Feature", "properties": {"norad_id": 66661, "name": "SNUGLITE-III", "group": "last-30-days", "lat": -15.518237951946169, "lon": -70.03168094325754, "alt_km": 596.7509774347172, "timestamp": "2025-12-26T19:22:37.604544+00:00", "meta": {"OBJECT_NAME": "SNUGLITE-III", "OBJECT_ID": "2025-274M", "EPOCH": "2025-12-26T04:58:20.371008", "MEAN_MOTION": 14.93164467, "ECCENTRICITY": 0.00134792, "INCLINATION": 97.7402, "RA_OF_ASC_NODE": 287.2134, "ARG_OF_PERICENTER": 232.0718, "MEAN_ANOMALY": 127.9284, "EPHEMERIS_TYPE": 0, "CLASSIFICATION_TYPE": "U", "NORAD_CAT_ID": 66661, "ELEMENT_SET_NO": 999, "REV_AT_EPOCH": 441, "BSTAR": 0.00028429475, "MEAN_MOTION_DOT": 2.915e-05, "MEAN_MOTION_DDOT": 0}, "tle": {"line1": "1 66661U 25274M   25360.20718022  .00002915  00000+0  28429-3 0  9997", "line2": "2 66661  97.7402 287.2134 0013479 232.0718 127.9284 14.93164467  4417"}}, "geometry": {"type": "Point", "coordinates": [-70.03168094325754, -15.518237951946169]}}, {"type": "Feature", "properties": {"norad_id": 66662, "name": "2025-274N", "group": "last-30-days", "lat": -9.444451677281645, "lon": -70.89645138909786, "alt_km": 597.0465147213008, "timestamp": "2025-12-26T19:22:37.604554+00:00", "meta": {"OBJECT_NAME": "2025-274N", "OBJECT_ID": "2025-274N", "EPOCH": "2025-12-26T12:59:12.244416", "MEAN_MOTION": 14.9322337, "ECCENTRICITY": 0.00139215, "INCLINATION": 97.7402, "RA_OF_ASC_NODE": 287.5451, "ARG_OF_PERICENTER": 230.5678, "MEAN_ANOMALY": 129.431, "EPHEMERIS_TYPE": 0, "CLASSIFICATION_TYPE": "U", "NORAD_CAT_ID": 66662, "ELEMENT_SET_NO": 999, "REV_AT_EPOCH": 446, "BSTAR": 0.00030799558, "MEAN_MOTION_DOT": 3.168e-05, "MEAN_MOTION_DDOT": 0}, "tle": {"line1": "1 66662U 25274N   25360.54111394  .00003168  00000+0  30800-3 0  9991", "line2": "2 66662  97.7402 287.5451 0013921 230.5678 129.4310 14.93223370  4464"}}, "geometry": {"type": "Point", "coordinates": [-70.89645138909786, -9.444451677281645]}}, {"type": "Feature", "properties": {"norad_id": 66663, "name": "KSLV-II R/B", "group": "last-30-days", "lat": 82.13621934641496, "lon": -152.1042625939276, "alt_km": 608.3909112675492, "timestamp": "2025-12-26T19:22:37.604566+00:00", "meta": {"OBJECT_NAME": "KSLV-II R/B", "OBJECT_ID": "2025-274P", "EPOCH": "2025-12-23T05:59:25.426176", "MEAN_MOTION": 14.97536982, "ECCENTRICITY": 0.00600006, "INCLINATION": 97.7435, "RA_OF_ASC_NODE": 284.4956, "ARG_OF_PERICENTER": 282.7951, "MEAN_ANOMALY": 76.657, "EPHEMERIS_TYPE": 0, "CLASSIFICATION_TYPE": "U", "NORAD_CAT_ID": 66663, "ELEMENT_SET_NO": 999, "REV_AT_EPOCH": 398, "BSTAR": 0.0011394408, "MEAN_MOTION_DOT": 0.00013749, "MEAN_MOTION_DDOT": 0}, "tle": {"line1": "1 66663U 25274P   25357.24959984  .00013749  00000+0  11394-2 0  9992", "line2": "2 66663  97.7435 284.4956 0060000 282.7951  76.6570 14.97536982  3987"}}, "geometry": {"type": "Point", "coordinates": [-152.1042625939276, 82.13621934641496]}}, {"type": "Feature", "properties": {"norad_id": 66664, "name": "SOYUZ-MS 28", "group": "last-30-days", "lat": 50.96306056116939, "lon": 150.50959507207406, "alt_km": 411.7100285146271, "timestamp": "2025-12-26T19:22:37.604576+00:00", "meta": {"OBJECT_NAME": "SOYUZ-MS 28", "OBJECT_ID": "2025-275A", "EPOCH": "2025-12-26T12:50:01.193856", "MEAN_MOTION": 15.49844261, "ECCENTRICITY": 0.00032307, "INCLINATION": 51.632, "RA_OF_ASC_NODE": 74.1581, "ARG_OF_PERICENTER": 305.5588, "MEAN_ANOMALY": 54.5099, "EPHEMERIS_TYPE": 0, "CLASSIFICATION_TYPE": "U", "NORAD_CAT_ID": 66664, "ELEMENT_SET_NO": 999, "REV_AT_EPOCH": 128, "BSTAR": 0.00025381537, "MEAN_MOTION_DOT": 0.00013978, "MEAN_MOTION_DDOT": 0}, "tle": {"line1": "1 66664U 25275A   25360.53473604  .00013978  00000+0  25382-3 0  9997", "line2": "2 66664  51.6320  74.1581 0003230 305.5588  54.5099 15.49844261  1282"}}, "geometry": {"type": "Point", "coordinates": [150.50959507207406, 50.96306056116939]}}, {"type": "Feature", "properties": {"norad_id": 66666, "name": "FORMOSAT-8A", "group": "last-30-days", "lat": -35.73561843060407, "lon": -113.0148539970742, "alt_km": 569.7476290380828, "timestamp": "2025-12-26T19:22:37.604587+00:00", "meta": {"OBJECT_NAME": "FORMOSAT-8A", "OBJECT_ID": "2025-276A", "EPOCH": "2025-12-26T15:12:58.247136", "MEAN_MOTION": 15.00368206, "ECCENTRICITY": 0.00041078, "INCLINATION": 97.6575, "RA_OF_ASC_NODE": 72.3697, "ARG_OF_PERICENTER": 182.2215, "MEAN_ANOMALY": 177.8991, "EPHEMERIS_TYPE": 0, "CLASSIFICATION_TYPE": "U", "NORAD_CAT_ID": 66666, "ELEMENT_SET_NO": 999, "REV_AT_EPOCH": 417, "BSTAR": 0.00033091827, "MEAN_MOTION_DOT": 4.097e-05, "MEAN_MOTION_DDOT": 0}, "tle": {"line1": "1 66666U 25276A   25360.63400749  .00004097  00000+0  33092-3 0  9990", "line2": "2 66666  97.6575  72.3697 0004107 182.2215 177.8991 15.00368206  4173"}}, "geometry": {"type": "Point", "coordinates": [-113.0148539970742, -35.73561843060407]}}]}